TDRS 3                  
1 19548U 88091B   26116.90808589 -.00000311  00000+0  00000+0 0  9990
2 19548  12.6410 341.3448 0040968 356.1807 155.4467  1.00274944124872
HST                     
1 20580U 90037B   26117.21580754  .00008137  00000+0  26302-3 0  9997
2 20580  28.4746  68.7822 0001662 301.5243  58.5190 15.30170094780759
TDRS 5                  
1 21639U 91054B   26117.26298480  .00000073  00000+0  00000+0 0  9994
2 21639  14.0782 354.1601 0007870 285.5438 222.5083  1.00271257127201
TDRS 6                  
1 22314U 93003B   26117.27298119 -.00000306  00000+0  00000+0 0  9991
2 22314  14.1825 357.4385 0006005 178.9992  91.3449  1.00273363121892
TDRS 7                  
1 23613U 95035B   26117.14816609 -.00000252  00000+0  00000+0 0  9997
2 23613  13.3989 348.5421 0010905  64.9519 304.0713  1.00278005112742
ISS (ZARYA)             
1 25544U 98067A   26117.16773235  .00010693  00000+0  20200-3 0  9996
2 25544  51.6319 192.6271 0007042 355.6641   4.4286 15.48984622563847
TERRA                   
1 25994U 99068A   26117.27198513  .00000431  00000+0  96779-4 0  9993
2 25994  97.9501 168.8266 0003139  53.9282  10.6190 14.61061586402173
TDRS 8                  
1 26388U 00034A   26116.90173118 -.00000202  00000+0  00000+0 0  9993
2 26388  12.6047  31.7524 0006230 344.7779 247.6634  1.00276985 94668
TIMED                   
1 26998U 01055B   26117.02439833  .00001076  00000+0  10159-3 0  9996
2 26998  74.0683 338.0281 0001727 210.3841 149.7244 14.95169763323173
AQUA                    
1 27424U 02022A   26117.28419853  .00000924  00000+0  19381-3 0  9991
2 27424  98.4245  85.5642 0002049  94.5121  10.6715 14.62076657275839
SORCE                   
1 27651U 03004A   26117.26165182  .00003438  00000+0  25842-3 0  9997
2 27651  39.9900 192.1629 0016327  43.3459 316.8616 15.03429856264231
AURA                    
1 28376U 04026A   26117.24738952  .00000905  00000+0  19332-3 0  9999
2 28376  98.3382  73.2937 0001700  84.8439 275.2956 14.61248172158776
SWIFT                   
1 28485U 04047A   26116.58527097  .00051910  00000+0  52220-3 0  9990
2 28485  20.5524 221.4796 0001680 332.8404  27.1953 15.63634576178769
THEMIS A                
1 30580U 07004A   26116.26805641  .00000070  00000+0  70720-2 0  9999
2 30580   7.6209 114.2897 8382353 189.0072 126.3590  0.87844739 40823
THEMIS D                
1 30797U 07004D   26114.29748828 -.00000017  00000+0  00000+0 0  9996
2 30797   7.1883  82.6457 8339467 223.1112 208.3988  0.87834113 40602
THEMIS E                
1 30798U 07004E   26117.28371828  .00000034  00000+0  00000+0 0  9999
2 30798   5.7374 101.1127 8448174 206.3966 155.0775  0.88331996 65475
FGRST (GLAST)           
1 33053U 08029A   26117.28171081  .00004002  00000+0  14840-3 0  9993
2 33053  25.5813 197.8669 0008733  86.5266 273.6271 15.23669823988064
